ZHONGXING-1E            
1 53813U 22112A   26157.61098304 -.00000136  00000+0  00000+0 0  9999
2 53813   0.0423 106.4767 0000324 254.1807 195.7376  1.00271022 13746
SES-20                  
1 53960U 22123A   26156.61409580 -.00000089  00000+0  00000+0 0  9992
2 53960   0.0365  76.2394 0002157   4.3316 291.4558  1.00272764 13414
SES-21                  
1 53961U 22123B   26156.49627841  .00000082  00000+0  00000+0 0  9993
2 53961   0.0279  33.4670 0000846  38.9311 229.1777  1.00270202  7095
GALAXY 33 (G-33)        
1 54026U 22128A   26157.53504324  .00000092  00000+0  00000+0 0  9998
2 54026   0.0218  49.3833 0001942  26.4775 238.7213  1.00272166 13631
GALAXY 34 (G-34)        
1 54027U 22128B   26156.96541106  .00000071  00000+0  00000+0 0  9991
2 54027   0.0081  33.4234 0002001  61.9178  17.6089  1.00274021 13803
ANGOSAT 2               
1 54033U 22131A   26157.63715713  .00000149  00000+0  00000+0 0  9990
2 54033   0.0274  77.0475 0001449  32.7514  37.6293  1.00272301 13370
EUTELSAT HOTBIRD 13F    
1 54048U 22134A   26157.13615171  .00000100  00000+0  00000+0 0  9998
2 54048   0.0472 291.0957 0001948  73.1515 312.3364  1.00271810 13267
LDPE-2                  
1 54219U 22144A   26157.52817894  .00000138  00000+0  00000+0 0  9999
2 54219   5.5867  63.7378 0001721  93.4451 120.5034  1.00528478 11737
EUTELSAT HOTBIRD 13G    
1 54225U 22146A   26157.15739169  .00000100  00000+0  00000+0 0  9994
2 54225   0.0462 231.3068 0002150 305.7537 147.1804  1.00271473  7358
ZHONGXING-19            
1 54230U 22148A   26157.61989122 -.00000068  00000+0  00000+0 0  9993
2 54230   0.0268 275.9494 0002446 184.2190 181.2210  1.00271931 13275
GALAXY 31 (G-31)        
1 54243U 22153A   26157.53738325  .00000026  00000+0  00000+0 0  9994
2 54243   0.0238  85.6019 0001415 350.9516 250.8621  1.00272271  7027
GALAXY 32 (G-32)        
1 54244U 22153B   26157.40073403 -.00000161  00000+0  00000+0 0  9991
2 54244   0.0137  23.8026 0002346  13.8118 270.4767  1.00272104 13037
EUTELSAT 10B            
1 54259U 22157A   26157.56333862  .00000081  00000+0  00000+0 0  9996
2 54259   0.0622 100.8994 0002273  12.0193 354.8740  1.00268580 12923
GALAXY 35 (G-35)        
1 54741U 22170A   26157.54292995 -.00000149  00000+0  00000+0 0  9992
2 54741   0.0132  56.5995 0002197  22.4697 278.2534  1.00272017 12786
GALAXY 36 (G-36)        
1 54742U 22170B   26157.54370995 -.00000172  00000+0  00000+0 0  9996
2 54742   0.0047 223.4787 0002778 219.0961 279.1320  1.00271658 12669
METEOSAT-12 (MTG-I1)    
1 54743U 22170C   26157.34727770  .00000005  00000+0  00000+0 0  9996
2 54743   0.7261  21.1051 0003518  70.2251 288.0323  1.00271557 12866
SHIJIAN-23 (SJ-23)      
1 55131U 23002A   26156.74996501 -.00000175  00000+0  00000+0 0  9995
2 55131   3.6875  78.4564 0003906 277.5111 323.8270  1.00090672 12397
APSTAR-6E               
1 55239U 23005A   26157.62638868 -.00000301  00000+0  00000+0 0  9995
2 55239   0.0254 249.8825 0000554 186.4353 178.2224  1.00295854 18581
USA 342                 
1 55263U 23008A   26155.14198786  .00000150  00000+0  00000+0 0  9991
2 55263   0.0087 134.3874 0000373 135.9762  57.1445  1.00271932 12389
LDPE-3A                 
1 55264U 23008B   26157.47706986 -.00000143  00000+0  00000+0 0  9990
2 55264   2.3190  81.7968 0001206  45.9793 233.2468  0.99147639 11709
ELEKTRO-L 4             
1 55506U 23016A   26156.83318719 -.00000045  00000+0  00000+0 0  9991
2 55506   0.0735 182.2520 0000727 356.9549 180.7989  1.00272544 12229
AMAZONAS NEXUS          
1 55508U 23017A   26156.55115306 -.00000270  00000+0  00000+0 0  9990
2 55508   0.0380  34.5795 0005390  27.5428 329.2887  1.00270208  6920
ZHONGXING-26            
1 55686U 23023A   26157.65738848 -.00000340  00000+0  00000+0 0  9996
2 55686   0.0686  71.9272 0004094  15.3917 169.5362  1.00268842 12122
LUCH-5X (OLYMP-K 2)     
1 55841U 23031A   26156.77191141  .00000046  00000+0  00000+0 0  9991
2 55841   0.0251  55.0766 0000838 169.0546   9.9167  1.00273024 11825
GAOFEN-13 02            
1 55912U 23036A   26157.53447459 -.00000205  00000+0  00000+0 0  9994
2 55912   1.0189 359.7316 0004185 341.9127 254.0009  1.00273707 11988
SES-18                  
1 55970U 23038A   26157.53330929 -.00000088  00000+0  00000+0 0  9992
2 55970   0.0139 312.1941 0000377  52.3820 339.2774  1.00271892 11994
SES-19                  
1 55971U 23038B   26157.53460991  .00000101  00000+0  00000+0 0  9991
2 55971   0.0251 297.1000 0001836 141.8000 233.6160  1.00271557 11986
INTELSAT 40E (IS-40E)   
1 56174U 23052A   26157.54327662 -.00000161  00000+0  00000+0 0  9998
2 56174   0.0126  55.9947 0002094  60.5655 242.9871  1.00271919 11718
VIASAT-3 F1             
1 56370U 23060A   26157.54370995  .00000000  00000+0  00000+0 0  9993
2 56370   0.0239 323.0874 0001025 104.1333 294.4870  1.00271413 11327
ARCTURUS                
1 56371U 23060B   26157.57573201 -.00000049  00000+0  00000+0 0  9996
2 56371   2.7492  80.0702 0002162  42.5673  52.0895  1.00271771 11358
GS-1                    
1 56372U 23060C   26156.65220053 -.00000211  00000+0  00000+0 0  9990
2 56372   2.6974  79.9630 0004012 279.8195 218.2961  1.00277841  7427
BEIDOU-3 G4             
1 56564U 23066A   26157.58903377 -.00000269  00000+0  00000+0 0  9992
2 56564   0.4994 328.6734 0004418 169.0695 109.3131  1.00267734 11280
