OBJECT_NAME,OBJECT_ID,EPOCH,MEAN_MOTION,ECCENTRICITY,INCLINATION,RA_OF_ASC_NODE,ARG_OF_PERICENTER,MEAN_ANOMALY,EPHEMERIS_TYPE,CLASSIFICATION_TYPE,NORAD_CAT_ID,ELEMENT_SET_NO,REV_AT_EPOCH,BSTAR,MEAN_MOTION_DOT,MEAN_MOTION_DDOT
ZHONGXING-1E,2022-112A,2026-06-06T14:39:48.934656,1.00271022,.00003249,0.0423,106.4767,254.1807,195.7376,0,U,53813,999,1374,0,-.136E-5,0
SES-20,2022-123A,2026-06-05T14:44:17.877120,1.00272764,.00021576,0.0365,76.2394,4.3316,291.4558,0,U,53960,999,1341,0,-.89E-6,0
SES-21,2022-123B,2026-06-05T11:54:38.454624,1.00270202,.00008462,0.0279,33.4670,38.9311,229.1777,0,U,53961,999,709,0,.82E-6,0
GALAXY 33 (G-33),2022-128A,2026-06-06T12:50:27.735936,1.00272166,.00019428,0.0218,49.3833,26.4775,238.7213,0,U,54026,999,1363,0,.92E-6,0
GALAXY 34 (G-34),2022-128B,2026-06-05T23:10:11.515584,1.00274021,.00020011,0.0081,33.4234,61.9178,17.6089,0,U,54027,999,1380,0,.71E-6,0
ANGOSAT 2,2022-131A,2026-06-06T15:17:30.376032,1.00272301,.0001449,0.0274,77.0475,32.7514,37.6293,0,U,54033,999,1337,0,.149E-5,0
EUTELSAT HOTBIRD 13F,2022-134A,2026-06-06T03:16:03.507744,1.00271810,.0001948,0.0472,291.0957,73.1515,312.3364,0,U,54048,999,1326,0,.1E-5,0
LDPE-2,2022-144A,2026-06-06T12:40:34.660416,1.00528478,.00017217,5.5867,63.7378,93.4451,120.5034,0,U,54219,999,1173,0,.138E-5,0
EUTELSAT HOTBIRD 13G,2022-146A,2026-06-06T03:46:38.642016,1.00271473,.000215,0.0462,231.3068,305.7537,147.1804,0,U,54225,999,735,0,.1E-5,0
ZHONGXING-19,2022-148A,2026-06-06T14:52:38.601408,1.00271931,.0002446,0.0268,275.9494,184.2190,181.2210,0,U,54230,999,1327,0,-.68E-6,0
GALAXY 31 (G-31),2022-153A,2026-06-06T12:53:49.912800,1.00272271,.00014154,0.0238,85.6019,350.9516,250.8621,0,U,54243,999,702,0,.26E-6,0
GALAXY 32 (G-32),2022-153B,2026-06-06T09:37:03.420192,1.00272104,.00023464,0.0137,23.8026,13.8118,270.4767,0,U,54244,999,1303,0,-.161E-5,0
EUTELSAT 10B,2022-157A,2026-06-06T13:31:12.456768,1.00268580,.00022733,0.0622,100.8994,12.0193,354.8740,0,U,54259,999,1292,0,.81E-6,0
GALAXY 35 (G-35),2022-170A,2026-06-06T13:01:49.147680,1.00272017,.00021972,0.0132,56.5995,22.4697,278.2534,0,U,54741,999,1278,0,-.149E-5,0
GALAXY 36 (G-36),2022-170B,2026-06-06T13:02:56.539680,1.00271658,.00027789,0.0047,223.4787,219.0961,279.1320,0,U,54742,999,1266,0,-.172E-5,0
METEOSAT-12 (MTG-I1),2022-170C,2026-06-06T08:20:04.793280,1.00271557,.00035183,0.7261,21.1051,70.2251,288.0323,0,U,54743,999,1286,0,.5E-7,0
SHIJIAN-23 (SJ-23),2023-002A,2026-06-05T17:59:56.976864,1.00090672,.0003906,3.6875,78.4564,277.5111,323.8270,0,U,55131,999,1239,0,-.175E-5,0
APSTAR-6E,2023-005A,2026-06-06T15:01:59.981952,1.00295854,.0000554,0.0254,249.8825,186.4353,178.2224,0,U,55239,999,1858,0,-.301E-5,0
USA 342,2023-008A,2026-06-04T03:24:27.751104,1.00271932,.0000373,0.0087,134.3874,135.9762,57.1445,0,U,55263,999,1238,0,.15E-5,0
LDPE-3A,2023-008B,2026-06-06T11:26:58.835904,0.99147639,.00012062,2.3190,81.7968,45.9793,233.2468,0,U,55264,999,1170,0,-.143E-5,0
ELEKTRO-L 4,2023-016A,2026-06-05T19:59:47.373216,1.00272544,.00007273,0.0735,182.2520,356.9549,180.7989,0,U,55506,999,1222,0,-.45E-6,0
AMAZONAS NEXUS,2023-017A,2026-06-05T13:13:39.624384,1.00270208,.00053907,0.0380,34.5795,27.5428,329.2887,0,U,55508,999,692,0,-.27E-5,0
ZHONGXING-26,2023-023A,2026-06-06T15:46:38.364672,1.00268842,.0004094,0.0686,71.9272,15.3917,169.5362,0,U,55686,999,1212,0,-.34E-5,0
LUCH-5X (OLYMP-K 2),2023-031A,2026-06-05T18:31:33.145824,1.00273024,.0000838,0.0251,55.0766,169.0546,9.9167,0,U,55841,999,1182,0,.46E-6,0
GAOFEN-13 02,2023-036A,2026-06-06T12:49:38.604576,1.00273707,.00041854,1.0189,359.7316,341.9127,254.0009,0,U,55912,999,1198,0,-.205E-5,0
SES-18,2023-038A,2026-06-06T12:47:57.922656,1.00271892,.00003771,0.0139,312.1941,52.3820,339.2774,0,U,55970,999,1199,0,-.88E-6,0
SES-19,2023-038B,2026-06-06T12:49:50.296224,1.00271557,.00018365,0.0251,297.1000,141.8000,233.6160,0,U,55971,999,1198,0,.101E-5,0
INTELSAT 40E (IS-40E),2023-052A,2026-06-06T13:02:19.099968,1.00271919,.00020946,0.0126,55.9947,60.5655,242.9871,0,U,56174,999,1171,0,-.161E-5,0
VIASAT-3 F1,2023-060A,2026-06-06T13:02:56.539680,1.00271413,.00010252,0.0239,323.0874,104.1333,294.4870,0,U,56370,999,1132,0,0,0
ARCTURUS,2023-060B,2026-06-06T13:49:03.245664,1.00271771,.00021621,2.7492,80.0702,42.5673,52.0895,0,U,56371,999,1135,0,-.49E-6,0
GS-1,2023-060C,2026-06-05T15:39:10.125792,1.00277841,.0004012,2.6974,79.9630,279.8195,218.2961,0,U,56372,999,742,0,-.211E-5,0
BEIDOU-3 G4,2023-066A,2026-06-06T14:08:12.517728,1.00267734,.00044185,0.4994,328.6734,169.0695,109.3131,0,U,56564,999,1128,0,-.269E-5,0
